0 SL-12 DEB
1 26037U 87079W   13268.21959704  .00000030  00000-0 -50554-4 0  8475
2 26037 065.0991 125.2446 5421759 279.1171 026.1458 04.47997482252341
0 SL-12 DEB
1 26037U 87079W   13276.92512655  .00000089  00000-0  20662-3 0  8482
2 26037 065.1031 122.0036 5421211 278.6391 026.3964 04.47997754252737
